$$SOE
2461309.500000000, A.D. 2026-Sep-26 00:00:00.0000, 3.979765312696810E+08, 2.039935318934174E+08, 2.502869810925041E+07,
2461316.500000000, A.D. 2026-Oct-03 00:00:00.0000, 3.949402624437321E+08, 2.134627023351593E+08, 2.628131617899348E+07,
2461323.500000000, A.D. 2026-Oct-10 00:00:00.0000, 3.916931815072690E+08, 2.228179068926380E+08, 2.751990562133512E+07,
2461330.500000000, A.D. 2026-Oct-17 00:00:00.0000, 3.882394683648962E+08, 2.320555411370242E+08, 2.874397715206569E+07,
2461337.500000000, A.D. 2026-Oct-24 00:00:00.0000, 3.845832987505265E+08, 2.411721358789265E+08, 2.995305920837736E+07,
2461344.500000000, A.D. 2026-Oct-31 00:00:00.0000, 3.807288417110683E+08, 2.501643524205988E+08, 3.114669734045312E+07,
2461351.500000000, A.D. 2026-Nov-07 00:00:00.0000, 3.766802577682912E+08, 2.590289778244976E+08, 3.232445356861106E+07,
2461358.500000000, A.D. 2026-Nov-14 00:00:00.0000, 3.724416979418324E+08, 2.677629210897054E+08, 3.348590576042646E+07,
2461365.500000000, A.D. 2026-Nov-21 00:00:00.0000, 3.680173018040946E+08, 2.763632109224620E+08, 3.463064725026515E+07,
2461372.500000000, A.D. 2026-Nov-28 00:00:00.0000, 3.634111935555286E+08, 2.848269920993141E+08, 3.575828654837307E+07,
2461379.500000000, A.D. 2026-Dec-05 00:00:00.0000, 3.586274797315478E+08, 2.931515197704529E+08, 3.686844675531875E+07,
2461386.500000000, A.D. 2026-Dec-12 00:00:00.0000, 3.536702486955749E+08, 3.013341548134764E+08, 3.796076492139746E+07,
2461393.500000000, A.D. 2026-Dec-19 00:00:00.0000, 3.485435700187558E+08, 3.093723602429343E+08, 3.903489152489817E+07,
2461400.500000000, A.D. 2026-Dec-26 00:00:00.0000, 3.432514935923930E+08, 3.172636978067505E+08, 4.009049001159601E+07,
2461407.500000000, A.D. 2027-Jan-02 00:00:00.0000, 3.377980487377120E+08, 3.250058245773682E+08, 4.112723635464896E+07,
2461414.500000000, A.D. 2027-Jan-09 00:00:00.0000, 3.321872434187322E+08, 3.325964895562538E+08, 4.214481862577237E+07,
2461421.500000000, A.D. 2027-Jan-16 00:00:00.0000, 3.264230635825118E+08, 3.400335302989115E+08, 4.314293657504323E+07,
2461428.500000000, A.D. 2027-Jan-23 00:00:00.0000, 3.205094726619596E+08, 3.473148695190791E+08, 4.412130121170075E+07,
2461435.500000000, A.D. 2027-Jan-30 00:00:00.0000, 3.144504114187415E+08, 3.544385116227342E+08, 4.507963436462055E+07,
2461442.500000000, A.D. 2027-Feb-06 00:00:00.0000, 3.082497985418872E+08, 3.614025395102690E+08, 4.601766821104844E+07,
2461449.500000000, A.D. 2027-Feb-13 00:00:00.0000, 3.019115315331910E+08, 3.682051128635365E+08, 4.693514491492836E+07,
2461456.500000000, A.D. 2027-Feb-20 00:00:00.0000, 2.954394855055508E+08, 3.748444671231277E+08, 4.783181652621701E+07,
2461463.500000000, A.D. 2027-Feb-27 00:00:00.0000, 2.888375112817826E+08, 3.813189099417269E+08, 4.870744475041905E+07,
2461470.500000000, A.D. 2027-Mar-06 00:00:00.0000, 2.821094358074433E+08, 3.876268170353158E+08, 4.956180046849708E+07,
2461477.500000000, A.D. 2027-Mar-13 00:00:00.0000, 2.752590632719193E+08, 3.937666294782298E+08, 5.039466332068723E+07,
2461484.500000000, A.D. 2027-Mar-20 00:00:00.0000, 2.682901758022304E+08, 3.997368516045219E+08, 5.120582138899902E+07,
2461491.500000000, A.D. 2027-Mar-27 00:00:00.0000, 2.612065339263830E+08, 4.055360489645132E+08, 5.199507091461396E+07,
2461498.500000000, A.D. 2027-Apr-03 00:00:00.0000, 2.540118770046668E+08, 4.111628462866461E+08, 5.276221602731308E+07,
2461505.500000000, A.D. 2027-Apr-10 00:00:00.0000, 2.467099236859686E+08, 4.166159254654888E+08, 5.350706848286033E+07,
2461512.500000000, A.D. 2027-Apr-17 00:00:00.0000, 2.393043724072664E+08, 4.218940235593625E+08, 5.422944740483141E+07,
2461519.500000000, A.D. 2027-Apr-24 00:00:00.0000, 2.317989020118246E+08, 4.269959307333279E+08, 5.492917901826927E+07,
2461526.500000000, A.D. 2027-May-01 00:00:00.0000, 2.241971727823769E+08, 4.319204881735627E+08, 5.560609634976551E+07,
2461533.500000000, A.D. 2027-May-08 00:00:00.0000, 2.165028281941029E+08, 4.366665867200010E+08, 5.626003892679694E+07,
2461540.500000000, A.D. 2027-May-15 00:00:00.0000, 2.087194958882972E+08, 4.412331671678845E+08, 5.689085269111666E+07,
2461547.500000000, A.D. 2027-May-22 00:00:00.0000, 2.008507862988260E+08, 4.456192196431354E+08, 5.749839005734217E+07,
2461554.500000000, A.D. 2027-May-29 00:00:00.0000, 1.929002922838964E+08, 4.498237805831867E+08, 5.808250968922755E+07,
2461561.500000000, A.D. 2027-Jun-05 00:00:00.0000, 1.848715906473714E+08, 4.538459304548627E+08, 5.864307616859323E+07,
2461568.500000000, A.D. 2027-Jun-12 00:00:00.0000, 1.767682435407647E+08, 4.576847926386208E+08, 5.917995977606738E+07,
2461575.500000000, A.D. 2027-Jun-19 00:00:00.0000, 1.685937994129515E+08, 4.613395325418848E+08, 5.969303633743471E+07,
2461582.500000000, A.D. 2027-Jun-26 00:00:00.0000, 1.603517937855033E+08, 4.648093566781017E+08, 6.018218708849609E+07,
2461589.500000000, A.D. 2027-Jul-03 00:00:00.0000, 1.520457499843282E+08, 4.680935117173685E+08, 6.064729854678032E+07,
2461596.500000000, A.D. 2027-Jul-10 00:00:00.0000, 1.436791798625742E+08, 4.711912835146524E+08, 6.108826238714027E+07,
2461603.500000000, A.D. 2027-Jul-17 00:00:00.0000, 1.352555845487008E+08, 4.741019960744454E+08, 6.150497531452805E+07,
2461610.500000000, A.D. 2027-Jul-24 00:00:00.0000, 1.267784553735325E+08, 4.768250103878626E+08, 6.189733891455445E+07,
2461617.500000000, A.D. 2027-Jul-31 00:00:00.0000, 1.182512753857112E+08, 4.793597233779193E+08, 6.226525946377906E+07,
2461624.500000000, A.D. 2027-Aug-07 00:00:00.0000, 1.096775212542852E+08, 4.817055681057051E+08, 6.260864781279719E+07,
2461631.500000000, A.D. 2027-Aug-14 00:00:00.0000, 1.010606632578141E+08, 4.838620149833199E+08, 6.292741953252381E+07,
2461638.500000000, A.D. 2027-Aug-21 00:00:00.0000, 9.240416397691076E+07, 4.858285706270983E+08, 6.322149499179614E+07,
2461645.500000000, A.D. 2027-Aug-28 00:00:00.0000, 8.371147911995479E+07, 4.876047755549403E+08, 6.349079915015802E+07,
2461652.500000000, A.D. 2027-Sep-04 00:00:00.0000, 7.498605930137898E+07, 4.891902032302620E+08, 6.373526137850642E+07,
2461659.500000000, A.D. 2027-Sep-11 00:00:00.0000, 6.623135137692861E+07, 4.905844597895075E+08, 6.395481538095337E+07,
2461666.500000000, A.D. 2027-Sep-18 00:00:00.0000, 5.745079946800573E+07, 4.917871838017982E+08, 6.414939915207681E+07,
2461673.500000000, A.D. 2027-Sep-25 00:00:00.0000, 4.864784590298036E+07, 4.927980459826212E+08, 6.431895494185528E+07,
2461680.500000000, A.D. 2027-Oct-02 00:00:00.0000, 3.982593214972240E+07, 4.936167488890139E+08, 6.446342922332710E+07,
2461687.500000000, A.D. 2027-Oct-09 00:00:00.0000, 3.098849976114156E+07, 4.942430265918089E+08, 6.458277266024885E+07,
2461694.500000000, A.D. 2027-Oct-16 00:00:00.0000, 2.213899139628943E+07, 4.946766442702473E+08, 6.467694006422526E+07,
2461701.500000000, A.D. 2027-Oct-23 00:00:00.0000, 1.328085217624514E+07, 4.949173977236078E+08, 6.474589031683743E+07,
2461708.500000000, A.D. 2027-Oct-30 00:00:00.0000, 4.417531748808952E+06, 4.949651134110246E+08, 6.478958627225527E+07,
2461715.500000000, A.D. 2027-Nov-06 00:00:00.0000, -4.447514101490886E+06, 4.948196501489774E+08, 6.480799483928305E+07,
2461722.500000000, A.D. 2027-Nov-13 00:00:00.0000, -1.331082428299332E+07, 4.944809003897858E+08, 6.480108725498512E+07,
2461729.500000000, A.D. 2027-Nov-20 00:00:00.0000, -2.216893276571930E+07, 4.939487888939758E+08, 6.476883910495844E+07,
2461736.500000000, A.D. 2027-Nov-27 00:00:00.0000, -3.101836687343159E+07, 4.932232717631527E+08, 6.471123018464977E+07,
2461743.500000000, A.D. 2027-Dec-04 00:00:00.0000, -3.985564552212419E+07, 4.923043367491674E+08, 6.462824446224976E+07,
2461750.500000000, A.D. 2027-Dec-11 00:00:00.0000, -4.867727795544453E+07, 4.911920038757429E+08, 6.451987011487168E+07,
2461757.500000000, A.D. 2027-Dec-18 00:00:00.0000, -5.747976270256500E+07, 4.898863260337071E+08, 6.438609958515295E+07,
2461764.500000000, A.D. 2027-Dec-25 00:00:00.0000, -6.625958660707470E+07, 4.883873895482004E+08, 6.422692964426523E+07,
2461771.500000000, A.D. 2028-Jan-01 00:00:00.0000, -7.501322388611037E+07, 4.866953147329915E+08, 6.404236145881593E+07,
$$EOE